     3.04           N: GNSS NAV DATA    M: MIXED            RINEX VERSION / TYPE
ssrcrin-15.6.1x                         20250101 111500 UTC PGM / RUN BY / DATE 
    18                                                      LEAP SECONDS        
                                                            END OF HEADER       
S21 2025 01 01 11 25 04 0.000000000000E+00 0.000000000000E+00 3.003140000000E+05
     4.200468400000E+04 0.000000000000E+00 0.000000000000E+00 6.300000000000E+01
    -3.674932960000E+03 0.000000000000E+00 0.000000000000E+00 3.276700000000E+04
     0.000000000000E+00 0.000000000000E+00 0.000000000000E+00 9.900000000000E+01
E02 2025 01 01 11 10 00 1.867228420451E-04 2.870592652471E-12 0.000000000000E+00
     1.180000000000E+02-1.478125000000E+01 3.344425023012E-09 5.367844653762E-01
    -6.798654794693E-07 5.104683805257E-04 6.817281246185E-06 5.440610418320E+03
     2.994000000000E+05-2.048909664154E-08 2.416805753638E+00 3.725290298462E-09
     9.646435747397E-01 1.969062500000E+02 6.870684143573E-01-5.431297663920E-09
    -6.782425372384E-10 5.170000000000E+02 2.347000000000E+03
     3.120000000000E+00 0.000000000000E+00-3.958120942116E-09-3.958120942116E-09
     3.003350000000E+05
S36 2025 01 01 11 25 36 0.000000000000E+00 0.000000000000E+00 3.003460000000E+05
     4.200368800000E+04 0.000000000000E+00 0.000000000000E+00 6.300000000000E+01
     3.674846960000E+03 0.000000000000E+00 0.000000000000E+00 3.276700000000E+04
     0.000000000000E+00 0.000000000000E+00 0.000000000000E+00 1.650000000000E+02
E02 2025 01 01 11 10 00 1.867227256298E-04 2.870592652471E-12 0.000000000000E+00
     1.180000000000E+02-1.478125000000E+01 3.344425023012E-09 5.367844653762E-01
    -6.798654794693E-07 5.104683805257E-04 6.817281246185E-06 5.440610418320E+03
     2.994000000000E+05-2.048909664154E-08 2.416805753638E+00 3.725290298462E-09
     9.646435747397E-01 1.969062500000E+02 6.870684143573E-01-5.431297663920E-09
    -6.782425372384E-10 2.580000000000E+02 2.347000000000E+03
     3.120000000000E+00 0.000000000000E+00-3.958120942116E-09 0.000000000000E+00
     3.003900000000E+05
E29 2025 01 01 11 00 00-5.844671977684E-05-3.069544618484E-12 0.000000000000E+00
     1.170000000000E+02-1.587187500000E+02 2.947622780320E-09-1.784099591618E+00
    -7.372349500656E-06 3.113765269518E-04 1.113675534725E-05 5.440610851288E+03
     2.988000000000E+05 3.725290298462E-08 3.157532597278E-01-3.725290298462E-09
     9.569311130505E-01 1.003125000000E+02 2.655918411697E+00-5.292006147583E-09
     3.121558596874E-10 2.580000000000E+02 2.347000000000E+03
     3.120000000000E+00 0.000000000000E+00-5.355104804039E-09 0.000000000000E+00
     3.003900000000E+05
S23 2025 01 01 11 27 12 0.000000000000E+00 0.000000000000E+00 3.004350000000E+05
     3.866796400000E+04 0.000000000000E+00 0.000000000000E+00 6.300000000000E+01
     1.681330800000E+04 0.000000000000E+00 0.000000000000E+00 3.276700000000E+04
     0.000000000000E+00 0.000000000000E+00 0.000000000000E+00 5.800000000000E+01
S21 2025 01 01 11 27 44 0.000000000000E+00 0.000000000000E+00 3.004760000000E+05
     4.200468400000E+04 0.000000000000E+00 0.000000000000E+00 6.300000000000E+01
    -3.674932960000E+03 0.000000000000E+00 0.000000000000E+00 3.276700000000E+04
     0.000000000000E+00 0.000000000000E+00 0.000000000000E+00 1.000000000000E+02
S36 2025 01 01 11 28 16 0.000000000000E+00 0.000000000000E+00 3.004980000000E+05
     4.200368800000E+04 0.000000000000E+00 0.000000000000E+00 6.300000000000E+01
     3.674846960000E+03 0.000000000000E+00 0.000000000000E+00 3.276700000000E+04
     0.000000000000E+00 0.000000000000E+00 0.000000000000E+00 1.660000000000E+02
S23 2025 01 01 11 29 04 0.000000000000E+00 0.000000000000E+00 3.005570000000E+05
     3.866796400000E+04 0.000000000000E+00 0.000000000000E+00 6.300000000000E+01
     1.681330800000E+04 0.000000000000E+00 0.000000000000E+00 3.276700000000E+04
     0.000000000000E+00 0.000000000000E+00 0.000000000000E+00 5.900000000000E+01
